IRIDIUM 126             
1 42809U 17039G   25027.88503353  .00000046  00000+0  93746-5 0  9997
2 42809  86.3981 204.7734 0001848  97.3786 262.7620 14.34217902397522
IRIDIUM 124             
1 42810U 17039H   25027.83857281  .00000056  00000+0  10654-4 0  9993
2 42810  86.4533 141.6461 0002373  93.7909 266.3564 14.43277026402229
IRIDIUM 128             
1 42811U 17039J   25027.10830820  .00000351  00000+0  11815-3 0  9991
2 42811  86.3942 236.5955 0002343  93.3865 266.7599 14.34219112397440
IRIDIUM 121             
1 42812U 17039K   25027.90406480  .00000242  00000+0  79242-4 0  9999
2 42812  86.3982 204.7897 0002135  89.6400 270.5040 14.34218718397400
IRIDIUM 133             
1 42955U 17061A   25027.07025716  .00000401  00000+0  13620-3 0  9993
2 42955  86.3945 236.7163 0002106  92.6502 267.4935 14.34215200382239
IRIDIUM 100             
1 42956U 17061B   25027.48253069  .00000133  00000+0  40263-4 0  9999
2 42956  86.3943 236.4745 0002124  93.0518 267.0920 14.34216896382291
IRIDIUM 122             
1 42957U 17061C   25027.86942604  .00000248  00000+0  81636-4 0  9998
2 42957  86.3943 236.3116 0001959  98.3957 261.7461 14.34216783382356
IRIDIUM 129             
1 42958U 17061D   25027.12734492  .00000115  00000+0  33900-4 0  9996
2 42958  86.3944 236.6835 0001677  82.9777 277.1609 14.34216582382267
